[{"OBJECT_NAME":"TRANSPORTER-12 OBJECT F","OBJECT_ID":"2025-009F","EPOCH":"2026-03-09T18:25:14.947104","MEAN_MOTION":15.73813521,"ECCENTRICITY":0.00060767,"INCLINATION":97.386,"RA_OF_ASC_NODE":159.0379,"ARG_OF_PERICENTER":265.786,"MEAN_ANOMALY":94.271,"EPHEMERIS_TYPE":0,"CLASSIFICATION_TYPE":"U","NORAD_CAT_ID":62614,"ELEMENT_SET_NO":999,"REV_AT_EPOCH":6425,"BSTAR":0.0022214492,"MEAN_MOTION_DOT":0.00324599,"MEAN_MOTION_DDOT":0},{"OBJECT_NAME":"STARLINK-36312","OBJECT_ID":"2026-018W","EPOCH":"2026-03-09T17:04:44.273856","MEAN_MOTION":15.7519903,"ECCENTRICITY":0.00010188,"INCLINATION":97.2834,"RA_OF_ASC_NODE":134.5601,"ARG_OF_PERICENTER":70.1356,"MEAN_ANOMALY":290.0019,"EPHEMERIS_TYPE":0,"CLASSIFICATION_TYPE":"U","NORAD_CAT_ID":67609,"ELEMENT_SET_NO":999,"REV_AT_EPOCH":731,"BSTAR":0.0022338921,"MEAN_MOTION_DOT":0.00347124,"MEAN_MOTION_DDOT":0}]
