TRANSPORTER-12 OBJECT F 
1 62614U 25009F   26068.76753411  .00324599  00000+0  22214-2 0  9995
2 62614  97.3860 159.0379 0006077 265.7860  94.2710 15.73813521 64258
STARLINK-36312          
1 67609U 26018W   26068.71162354  .00347124  00000+0  22339-2 0  9997
2 67609  97.2834 134.5601 0001019  70.1356 290.0019 15.75199030  7318
